<?xml version="1.0" encoding="UTF-8"?>
<gpx version="1.1" creator="moto-admin" xmlns="http://www.topografix.com/GPX/1/1">
  <metadata>
    <name>沈阳-鸭绿江-绿江村-集安环线</name>
    <time>2026-09-03T06:51:21Z</time>
  </metadata>
  <trk>
    <name>沈阳-鸭绿江-绿江村-集安环线</name>
    <trkseg>
    <trkpt lat="41.724099" lon="123.459698">
      <name>青年南大街与G1113丹阜高速入口交叉口</name>
    </trkpt>
    <trkpt lat="40.118655" lon="124.394254">
      <name>鸭绿江断桥</name>
    </trkpt>
    <trkpt lat="40.665243" lon="125.017182">
      <name>红石镇</name>
    </trkpt>
    <trkpt lat="40.709592" lon="125.194512">
      <name>大西岔镇</name>
    </trkpt>
    <trkpt lat="40.688260" lon="125.371621">
      <name>西江沟</name>
    </trkpt>
    <trkpt lat="40.693681" lon="125.419632">
      <name>雁阵线南口</name>
    </trkpt>
    <trkpt lat="40.718314" lon="125.456203">
      <name>__anchor__:雁阵线中段</name>
    </trkpt>
    <trkpt lat="40.741092" lon="125.492227">
      <name>雁阵线北口</name>
    </trkpt>
    <trkpt lat="40.793924" lon="125.612833">
      <name>振江镇绿江村景点</name>
    </trkpt>
    <trkpt lat="41.122012" lon="126.196649">
      <name>集安市大吉他主题广场</name>
    </trkpt>
    <trkpt lat="41.724160" lon="123.459951">
      <name>青年南大街与G1113丹阜高速出口交叉口</name>
    </trkpt>
    </trkseg>
  </trk>
</gpx>
