<?xml version="1.0" encoding="UTF-8"?>
<gpx version="1.1" creator="douyin-route-gpx"
  xmlns="http://www.topografix.com/GPX/1/1"
  xmlns:xsi="http://www.w3.org/2001/XMLSchema-instance"
  xsi:schemaLocation="http://www.topografix.com/GPX/1/1 http://www.topografix.com/GPX/1/1/gpx.xsd">
  <trk>
    <name>公路旅行必打卡的路线，走辽宁版的独库公路，登辽宁最高峰！ 这条旅游攻略带你去免费露营地、免费景区，走辽宁版独库公路，山水画卷般的公路旅行。#旅游攻略 #跟我去旅行 #旅游推荐 #风景如画的地方 #爱生活爱旅游</name>
    <desc>来源: https://www.douyin.com/video/7534667740594867499</desc>
    <trkseg>
      <trkpt lat="41.1078" lon="123.7594">
        <name>背阴汀铁路断桥</name>
        <desc>背阴汀铁路断桥 (精确)</desc>
      </trkpt>
      <trkpt lat="41.1142" lon="123.7536">
        <name>南芬音乐公路</name>
        <desc>南芬音乐公路 (精确)</desc>
      </trkpt>
      <trkpt lat="41.1128" lon="123.7558">
        <name>英雄纪念广场</name>
        <desc>英雄纪念广场 (精确)</desc>
      </trkpt>
      <trkpt lat="41.0922" lon="123.7611">
        <name>山有溪露营地</name>
        <desc>山有溪露营地 (精确)</desc>
      </trkpt>
      <trkpt lat="41.8583" lon="124.1667">
        <name>大伙房水库</name>
        <desc>大伙房水库 (精确)</desc>
      </trkpt>
      <trkpt lat="41.12" lon="123.78">
        <name>南芬区</name>
        <desc>南芬区 (精确)</desc>
      </trkpt>
      <trkpt lat="41.09" lon="123.77">
        <name>南天门</name>
        <desc>南天门 (精确)</desc>
      </trkpt>
      <trkpt lat="41.0389" lon="123.6917">
        <name>下马塘</name>
        <desc>下马塘 (精确)</desc>
      </trkpt>
      <trkpt lat="41.8057" lon="123.4315">
        <name>沈阳</name>
        <desc>沈阳 (精确)</desc>
      </trkpt>
      <trkpt lat="41.2941" lon="123.7652">
        <name>本溪</name>
        <desc>本溪 (精确)</desc>
      </trkpt>
      <trkpt lat="41.882" lon="123.957">
        <name>抚顺</name>
        <desc>抚顺 (精确)</desc>
      </trkpt>
      <trkpt lat="41.75" lon="124.45">
        <name>岗山</name>
        <desc>岗山 (精确)</desc>
      </trkpt>
    </trkseg>
  </trk>
</gpx>